COSMOS 2058             
1 20465U 90010A   26176.80473318  .00003368  00000+0  19409-3 0  9998
2 20465  82.4692 300.8564 0008672 326.0889  33.9785 15.12068397958576
SL-14 R/B               
1 20466U 90010B   26177.20521580  .00000383  00000+0  43408-4 0  9990
2 20466  82.5019 165.4755 0018452 305.0255  54.9228 14.83651667944574
SL-14 R/B               
1 20511U 90018B   26177.26000664  .00000396  00000+0  46523-4 0  9995
2 20511  82.5217 121.6278 0017702  94.3317 265.9921 14.82221916938669
HST                     
1 20580U 90037B   26177.27036609  .00007290  00000+0  22994-3 0  9996
2 20580  28.4732  18.4928 0001404 251.2839 108.7605 15.30848043789966
SL-16 R/B               
1 20625U 90046B   26177.13801886 -.00000197  00000+0 -77181-4 0  9998
2 20625  71.0001  70.1505 0012754 147.5900 212.6009 14.15026602863733
COSMOS 2084             
1 20663U 90055A   26177.15736004  .00002373  00000+0  17500-3 0  9995
2 20663  62.7908 325.4729 0006062 294.7080  65.3390 15.06151314952657
SL-6 R/B(2)             
1 20666U 90055D   26177.29096713  .00001383  00000+0  11242-3 0  9996
2 20666  62.7811 244.3969 0042139   6.3719 353.7907 15.04029042954525
SL-8 R/B                
1 20775U 90078B   26176.97738902  .00028406  00000+0  80275-3 0  9996
2 20775  82.9013 153.7002 0348445   8.8280 351.8851 14.92736591825438
SL-8 R/B                
1 21088U 91006B   26177.29960618  .00000050  00000+0  34171-4 0  9993
2 21088  82.9425  89.2551 0023886  90.5184  27.7564 13.77506660779022
OKEAN-3                 
1 21397U 91039A   26177.17877367  .00002360  00000+0  16257-3 0  9997
2 21397  82.5166 231.6629 0013022 324.4683  35.5675 15.05366574881357
COSMOS 2151             
1 21422U 91042A   26177.26273529  .00001785  00000+0  13949-3 0  9995
2 21422  82.4964 338.9213 0013522  56.6296 303.6220 15.00462366879476
SL-14 R/B               
1 21423U 91042B   26177.26844582  .00000346  00000+0  40774-4 0  9998
2 21423  82.4935 118.3799 0015549 241.9788 117.9854 14.81907760869153
ERS-1                   
1 21574U 91050A   26177.06177259  .00000266  00000+0  99840-4 0  9991
2 21574  98.7795 197.9767 0030841 239.6462 120.1674 14.39521981831321
ARIANE 40 R/B           
1 21610U 91050F   26177.13289856  .00000250  00000+0  86998-4 0  9990
2 21610  98.1871 225.2012 0004460 102.0517 258.1174 14.42961738834637
INTERCOSMOS 25          
1 21819U 91086A   26177.19094044  .00000905  00000+0  17984-3 0  9994
2 21819  82.6041 244.3614 1483968 242.9507 101.2683 12.12211109509832
SL-8 R/B                
1 21876U 92008B   26177.14407431  .00000158  00000+0  14695-3 0  9991
2 21876  82.9259 187.1278 0034404 189.2790 238.6536 13.75979302724334
SL-8 R/B                
1 21938U 92020B   26177.15653583  .00000060  00000+0  46771-4 0  9999
2 21938  82.9304  73.1953 0029089 357.9182 113.0363 13.75549781716047
USA 81                  
1 21949U 92023A   26177.21644318  .00000149  00000+0  47851-4 0  9995
2 21949  85.0071  68.7962 0002657  77.2076 282.9413 14.32400405110324
COSMOS 2219             
1 22219U 92076A   26177.24501130  .00000316  00000+0  19042-3 0  9997
2 22219  71.0596 151.1361 0017050  28.8510 331.3551 14.14105630733729
SL-16 R/B               
1 22220U 92076B   26176.86494259 -.00000039  00000+0  45016-5 0  9994
2 22220  71.0013 320.5003 0014969 287.2799 185.7093 14.16875707737150
COSMOS 2221             
1 22236U 92080A   26177.23231727  .00001452  00000+0  12517-3 0  9994
2 22236  82.5031 175.0984 0014085 180.7411 179.3793 14.96554926797025
SL-16 R/B               
1 22285U 92093B   26177.28814814  .00000174  00000+0  11369-3 0  9995
2 22285  71.0204 136.2855 0003492 170.8819 189.2368 14.15460770728523
COSMOS 2228             
1 22286U 92094A   26177.24136272  .00002079  00000+0  17522-3 0  9991
2 22286  82.5178 133.3702 0016162 299.5264  60.4346 14.97617684792302
SL-16 R/B               
1 22566U 93016B   26177.19847895 -.00000139  00000+0 -46920-4 0  9993
2 22566  71.0087 347.2794 0009588 170.8222 189.3078 14.15315777717523
COSMOS 2242             
1 22626U 93024A   26177.20494939  .00001662  00000+0  14223-3 0  9998
2 22626  82.5182 162.9150 0014685 303.8475  56.1349 14.96929086796626
SL-16 R/B               
1 22803U 93059B   26177.24187506  .00000037  00000+0  42173-4 0  9997
2 22803  70.9891 142.2089 0015615  38.9167 321.3077 14.17247216694916
ARIANE 40 R/B           
1 22830U 93061H   26176.79425192  .00000162  00000+0  75062-4 0  9997
2 22830  98.4816 243.4725 0009933 329.9128  30.1485 14.32911069709584
COSMOS 2278             
1 23087U 94023A   26176.80435525 -.00000137  00000+0 -46878-4 0  9991
2 23087  71.0552 308.8955 0010477 233.5172 126.4986 14.14398496660098
SL-16 R/B               
1 23088U 94023B   26177.29711821 -.00000076  00000+0 -14465-4 0  9991
2 23088  70.9986 202.7997 0002122 179.6313 180.4811 14.15027631661450
SL-16 R/B               
1 23343U 94074B   26177.00631640  .00000390  00000+0  58767-4 0  9990
2 23343  97.6988 203.3598 0005559 218.0611 199.1833 14.79509135703263
