OBJECT_NAME,OBJECT_ID,EPOCH,MEAN_MOTION,ECCENTRICITY,INCLINATION,RA_OF_ASC_NODE,ARG_OF_PERICENTER,MEAN_ANOMALY,EPHEMERIS_TYPE,CLASSIFICATION_TYPE,NORAD_CAT_ID,ELEMENT_SET_NO,REV_AT_EPOCH,BSTAR,MEAN_MOTION_DOT,MEAN_MOTION_DDOT
COSMOS 2058,1990-010A,2026-06-25T19:18:48.946752,15.12068397,.00086729,82.4692,300.8564,326.0889,33.9785,0,U,20465,999,95857,.19409007E-3,.3368E-4,0
SL-14 R/B,1990-010B,2026-06-26T04:55:30.645120,14.83651667,.00184528,82.5019,165.4755,305.0255,54.9228,0,U,20466,999,94457,.43408136E-4,.383E-5,0
SL-14 R/B,1990-018B,2026-06-26T06:14:24.573696,14.82221916,.00177023,82.5217,121.6278,94.3317,265.9921,0,U,20511,999,93866,.46522605E-4,.396E-5,0
HST,1990-037B,2026-06-26T06:29:19.630176,15.30848043,.00014043,28.4732,18.4928,251.2839,108.7605,0,U,20580,999,78996,.22994237E-3,.729E-4,0
SL-16 R/B,1990-046B,2026-06-26T03:18:44.829504,14.15026602,.00127541,71.0001,70.1505,147.5900,212.6009,0,U,20625,999,86373,-.77180967E-4,-.197E-5,0
COSMOS 2084,1990-055A,2026-06-26T03:46:35.907456,15.06151314,.00060623,62.7908,325.4729,294.7080,65.3390,0,U,20663,999,95265,.17500303E-3,.2373E-4,0
SL-6 R/B(2),1990-055D,2026-06-26T06:58:59.560032,15.04029042,.00421397,62.7811,244.3969,6.3719,353.7907,0,U,20666,999,95452,.11241561E-3,.1383E-4,0
SL-8 R/B,1990-078B,2026-06-25T23:27:26.411328,14.92736591,.03484459,82.9013,153.7002,8.8280,351.8851,0,U,20775,999,82543,.80274642E-3,.28406E-3,0
SL-8 R/B,1991-006B,2026-06-26T07:11:25.973952,13.77506660,.00238869,82.9425,89.2551,90.5184,27.7564,0,U,21088,999,77902,.34171027E-4,.5E-6,0
OKEAN-3,1991-039A,2026-06-26T04:17:26.045088,15.05366574,.00130221,82.5166,231.6629,324.4683,35.5675,0,U,21397,999,88135,.16257453E-3,.236E-4,0
COSMOS 2151,1991-042A,2026-06-26T06:18:20.329056,15.00462366,.00135227,82.4964,338.9213,56.6296,303.6220,0,U,21422,999,87947,.13949043E-3,.1785E-4,0
SL-14 R/B,1991-042B,2026-06-26T06:26:33.718848,14.81907760,.00155498,82.4935,118.3799,241.9788,117.9854,0,U,21423,999,86915,.40773712E-4,.346E-5,0
ERS-1,1991-050A,2026-06-26T01:28:57.151776,14.39521981,.0030841,98.7795,197.9767,239.6462,120.1674,0,U,21574,999,83132,.99840161E-4,.266E-5,0
ARIANE 40 R/B,1991-050F,2026-06-26T03:11:22.435584,14.42961738,.00044607,98.1871,225.2012,102.0517,258.1174,0,U,21610,999,83463,.86998439E-4,.25E-5,0
INTERCOSMOS 25,1991-086A,2026-06-26T04:34:57.254016,12.12211109,.14839686,82.6041,244.3614,242.9507,101.2683,0,U,21819,999,50983,.17983555E-3,.905E-5,0
SL-8 R/B,1992-008B,2026-06-26T03:27:28.020384,13.75979302,.00344041,82.9259,187.1278,189.2790,238.6536,0,U,21876,999,72433,.14695022E-3,.158E-5,0
SL-8 R/B,1992-020B,2026-06-26T03:45:24.695712,13.75549781,.00290897,82.9304,73.1953,357.9182,113.0363,0,U,21938,999,71604,.46771049E-4,.6E-6,0
USA 81,1992-023A,2026-06-26T05:11:40.690752,14.32400405,.00026571,85.0071,68.7962,77.2076,282.9413,0,U,21949,999,11032,.47850933E-4,.149E-5,0
COSMOS 2219,1992-076A,2026-06-26T05:52:48.976320,14.14105630,.00170502,71.0596,151.1361,28.8510,331.3551,0,U,22219,999,73372,.19041792E-3,.316E-5,0
SL-16 R/B,1992-076B,2026-06-25T20:45:31.039776,14.16875707,.00149695,71.0013,320.5003,287.2799,185.7093,0,U,22220,999,73715,.4501647E-5,-.39E-6,0
COSMOS 2221,1992-080A,2026-06-26T05:34:32.212128,14.96554926,.00140859,82.5031,175.0984,180.7411,179.3793,0,U,22236,999,79702,.12517182E-3,.1452E-4,0
SL-16 R/B,1992-093B,2026-06-26T06:54:55.999296,14.15460770,.00034928,71.0204,136.2855,170.8819,189.2368,0,U,22285,999,72852,.11368706E-3,.174E-5,0
COSMOS 2228,1992-094A,2026-06-26T05:47:33.739008,14.97617684,.00161621,82.5178,133.3702,299.5264,60.4346,0,U,22286,999,79230,.17521849E-3,.2079E-4,0
SL-16 R/B,1993-016B,2026-06-26T04:45:48.581280,14.15315777,.00095881,71.0087,347.2794,170.8222,189.3078,0,U,22566,999,71752,-.46920053E-4,-.139E-5,0
COSMOS 2242,1993-024A,2026-06-26T04:55:07.627296,14.96929086,.00146851,82.5182,162.9150,303.8475,56.1349,0,U,22626,999,79662,.14223432E-3,.1662E-4,0
SL-16 R/B,1993-059B,2026-06-26T05:48:18.005184,14.17247216,.00156154,70.9891,142.2089,38.9167,321.3077,0,U,22803,999,69491,.4217275E-4,.37E-6,0
ARIANE 40 R/B,1993-061H,2026-06-25T19:03:43.365888,14.32911069,.00099332,98.4816,243.4725,329.9128,30.1485,0,U,22830,999,70958,.75062417E-4,.162E-5,0
COSMOS 2278,1994-023A,2026-06-25T19:18:16.293600,14.14398496,.00104771,71.0552,308.8955,233.5172,126.4986,0,U,23087,999,66009,-.46878478E-4,-.137E-5,0
SL-16 R/B,1994-023B,2026-06-26T07:07:51.013344,14.15027631,.00021224,70.9986,202.7997,179.6313,180.4811,0,U,23088,999,66145,-.14464766E-4,-.76E-6,0
SL-16 R/B,1994-074B,2026-06-26T00:09:05.736960,14.79509135,.00055598,97.6988,203.3598,218.0611,199.1833,0,U,23343,999,70326,.58767447E-4,.39E-5,0
